QIANFAN-1               
1 60379U 24140A   26003.46759520  .00000205  00000+0  29789-3 0  9999
2 60379  88.9777 297.0338 0017964 146.4146 213.8147 13.50983373 70283
QIANFAN-2               
1 60380U 24140B   26003.42245203  .00000199  00000+0  28959-3 0  9995
2 60380  88.9763 296.8748 0014023 118.6635 241.5928 13.50987186 70336
QIANFAN-3               
1 60381U 24140C   26003.43061237  .00000198  00000+0  28705-3 0  9998
2 60381  88.9755 297.0049 0014819 130.7038 229.5403 13.50987700 70246
QIANFAN-4               
1 60382U 24140D   26003.40585610  .00000197  00000+0  28598-3 0  9991
2 60382  88.9780 296.9105 0014197 121.1764 239.0781 13.50983418 70365
QIANFAN-5               
1 60383U 24140E   26003.45534046  .00000196  00000+0  28407-3 0  9992
2 60383  88.9755 297.0277 0015762 141.8221 218.4050 13.50985431 70239
QIANFAN-6               
1 60384U 24140F   26003.47592262  .00000189  00000+0  27452-3 0  9990
2 60384  88.9782 296.7776 0014172 126.5067 233.7392 13.50985696 70436
QIANFAN-7               
1 60385U 24140G   26003.47230462  .00001418  00000+0  56913-3 0  9992
2 60385  88.9795 291.1713 0014587 338.1739  21.8832 14.27690320 73494
QIANFAN-8               
1 60386U 24140H   26003.41015020  .00000185  00000+0  26682-3 0  9998
2 60386  88.9783 297.0222 0017549 130.0793 230.1900 13.50987100 70276
